STARLINK-37946          
1 69672U 26143Z   26181.50002315 -.02062584  00000+0 -11414-1 0  9990
2 69672  97.2830 225.0570 0001292  83.1357 257.1050 15.82725072  2509
TJS-26A                 
1 69674U 26144A   26174.32980920  .00009630 -16661-6  31526-3 0  9997
2 69674  19.5157 324.7456 7314561 179.7910 181.1077  2.27958502    21
STARLINK-38005          
1 69677U 26145A   26180.75001157 -.02804729  20418-2 -97136-2 0  9995
2 69677  97.2865  26.7859 0001246  87.4300 242.6518 15.89660625  1957
STARLINK-38009          
1 69678U 26145B   26180.75001157 -.02791771  20297-2 -95299-2 0  9991
2 69678  97.2866  26.7873 0001339  88.8306 244.1366 15.89948319  1956
STARLINK-37998          
1 69679U 26145C   26180.75001157 -.02790481  20336-2 -94059-2 0  9996
2 69679  97.2866  26.7883 0001311  87.9840 247.3607 15.90199346  1954
STARLINK-37994          
1 69680U 26145D   26180.75001157 -.02792637  20327-2 -94959-2 0  9992
2 69680  97.2866  26.7890 0001234  84.6807 252.4629 15.90025946  1950
STARLINK-37992          
1 69681U 26145E   26180.75001157 -.02793639  20360-2 -94613-2 0  9990
2 69681  97.2866  26.7894 0001251  89.7008 248.6995 15.90105528  1951
STARLINK-37997          
1 69682U 26145F   26180.75001157 -.02792811  20363-2 -94276-2 0  9990
2 69682  97.2867  26.7900 0001256  86.7371 252.8824 15.90170456  1956
STARLINK-37990          
1 69683U 26145G   26180.75001157 -.02797325  20554-2 -91941-2 0  9994
2 69683  97.2867  26.7919 0001231  87.2778 256.8816 15.90698546  1957
STARLINK-37951          
1 69684U 26145H   26180.75001157 -.02791762  20470-2 -91793-2 0  9996
2 69684  97.2867  26.7922 0001234  87.8732 257.0027 15.90691089  1953
STARLINK-37957          
1 69685U 26145J   26180.75001157 -.02789914  20479-2 -91023-2 0  9998
2 69685  97.2867  26.7928 0001145  86.0832 260.5990 15.90844174  1956
STARLINK-37968          
1 69686U 26145K   26180.75001157 -.02768212  20584-2 -82483-2 0  9994
2 69686  97.2868  26.7984 0001159  87.8418 271.8612 15.92612481  1956
STARLINK-37977          
1 69687U 26145L   26180.75001157 -.02758475  20532-2 -80597-2 0  9992
2 69687  97.2870  26.7995 0001205  81.4436 281.3801 15.92989792  1952
STARLINK-37908          
1 69688U 26145M   26180.75001157 -.02752456  20536-2 -78830-2 0  9997
2 69688  97.2869  26.8011 0001254  83.9914 282.0617 15.93372907  1951
STARLINK-37979          
1 69689U 26145N   26180.75001157 -.02759641  20671-2 -78589-2 0  9992
2 69689  97.2868  26.8021 0001176  77.2963 291.5611 15.93481224  1957
STARLINK-37940          
1 69690U 26145P   26180.75001157 -.02759875  20807-2 -76461-2 0  9991
2 69690  97.2867  26.8040 0001221  66.4490 306.3191 15.94005574  1954
STARLINK-37961          
1 69691U 26145Q   26180.75001157 -.02734077  20543-2 -73771-2 0  9997
2 69691  97.2868  26.8056 0001127  79.2100 297.3057 15.94506204  1954
STARLINK-37787          
1 69692U 26145R   26180.75001157 -.02735631  20668-2 -72268-2 0  9993
2 69692  97.2867  26.8076 0001192  79.2684 302.3809 15.94904214  1950
STARLINK-37962          
1 69693U 26145S   26180.75001157 -.02731337  20610-2 -72043-2 0  9991
2 69693  97.2867  26.8073 0001220  81.5319 299.2559 15.94933196  1958
STARLINK-37953          
1 69694U 26145T   26180.75001157 -.02731054  20594-2 -72212-2 0  9997
2 69694  97.2867  26.8079 0001249  87.1668 295.4621 15.94887336  1957
STARLINK-37926          
1 69695U 26145U   26180.75001157 -.02731450  20637-2 -71673-2 0  9996
2 69695  97.2867  26.8091 0001265  76.3634 308.0451 15.95030604  1954
STARLINK-37959          
1 69696U 26145V   26180.75001157 -.02740118  20773-2 -71848-2 0  9993
2 69696  97.2867  26.8089 0001287  74.6394 310.6122 15.95043970  1954
STARLINK-37976          
1 69697U 26145W   26180.75001157 -.02716475  20599-2 -68506-2 0  9996
2 69697  97.2868  26.8115 0001347  70.7810 319.9326 15.95771709  1959
STARLINK-37912          
1 69698U 26145X   26180.75001157 -.02736146  21003-2 -67605-2 0  9994
2 69698  97.2867  26.8128 0001320  64.9461 328.8813 15.96150826  1953
STARLINK-37974          
1 69699U 26145Y   26180.75001157 -.02726040  20879-2 -66898-2 0  9990
2 69699  97.2866  26.8134 0001243  75.5543 320.0357 15.96277040  1958
STARLINK-37955          
1 69700U 26145Z   26180.75001157 -.02699649  20699-2 -63232-2 0  9996
2 69700  97.2867  26.8160 0001284  74.5140 326.7061 15.97134410  1957
STRIX-8                 
1 69701U 26146A   26181.14788743  .00004439  00000+0  32632-3 0  9990
2 69701  41.9893  96.4422 0009257 290.4743  69.5090 15.04311250   515
