OBJECT_NAME,OBJECT_ID,EPOCH,MEAN_MOTION,ECCENTRICITY,INCLINATION,RA_OF_ASC_NODE,ARG_OF_PERICENTER,MEAN_ANOMALY,EPHEMERIS_TYPE,CLASSIFICATION_TYPE,NORAD_CAT_ID,ELEMENT_SET_NO,REV_AT_EPOCH,BSTAR,MEAN_MOTION_DOT,MEAN_MOTION_DDOT
STARLINK-37946,2026-143Z,2026-06-30T12:00:02.000160,15.82725072,.00012929,97.2830,225.0570,83.1357,257.1050,0,U,69672,999,250,-.11413704E-1,-.2062584E-1,0
TJS-26A,2026-144A,2026-06-23T07:54:55.514880,2.27958502,.73145613,19.5157,324.7456,179.7910,181.1077,0,U,69674,999,2,.31526459E-3,.963E-4,-.166614E-6
STARLINK-38005,2026-145A,2026-06-29T18:00:00.999648,15.89660625,.00012467,97.2865,26.7859,87.4300,242.6518,0,U,69677,999,195,-.97135811E-2,-.2804729E-1,.20418477E-2
STARLINK-38009,2026-145B,2026-06-29T18:00:00.999648,15.89948319,.00013398,97.2866,26.7873,88.8306,244.1366,0,U,69678,999,195,-.9529932E-2,-.2791771E-1,.20296871E-2
STARLINK-37998,2026-145C,2026-06-29T18:00:00.999648,15.90199346,.00013116,97.2866,26.7883,87.9840,247.3607,0,U,69679,999,195,-.94059333E-2,-.2790481E-1,.20336245E-2
STARLINK-37994,2026-145D,2026-06-29T18:00:00.999648,15.90025946,.00012344,97.2866,26.7890,84.6807,252.4629,0,U,69680,999,195,-.9495859E-2,-.2792637E-1,.20327382E-2
STARLINK-37992,2026-145E,2026-06-29T18:00:00.999648,15.90105528,.00012512,97.2866,26.7894,89.7008,248.6995,0,U,69681,999,195,-.94612764E-2,-.2793639E-1,.20360394E-2
STARLINK-37997,2026-145F,2026-06-29T18:00:00.999648,15.90170456,.00012564,97.2867,26.7900,86.7371,252.8824,0,U,69682,999,195,-.94275739E-2,-.2792811E-1,.2036344E-2
STARLINK-37990,2026-145G,2026-06-29T18:00:00.999648,15.90698546,.00012319,97.2867,26.7919,87.2778,256.8816,0,U,69683,999,195,-.9194104E-2,-.2797325E-1,.20553517E-2
STARLINK-37951,2026-145H,2026-06-29T18:00:00.999648,15.90691089,.00012346,97.2867,26.7922,87.8732,257.0027,0,U,69684,999,195,-.91792772E-2,-.2791762E-1,.20470085E-2
STARLINK-37957,2026-145J,2026-06-29T18:00:00.999648,15.90844174,.00011456,97.2867,26.7928,86.0832,260.5990,0,U,69685,999,195,-.91023073E-2,-.2789914E-1,.20479174E-2
STARLINK-37968,2026-145K,2026-06-29T18:00:00.999648,15.92612481,.00011598,97.2868,26.7984,87.8418,271.8612,0,U,69686,999,195,-.82482548E-2,-.2768212E-1,.20584219E-2
STARLINK-37977,2026-145L,2026-06-29T18:00:00.999648,15.92989792,.00012055,97.2870,26.7995,81.4436,281.3801,0,U,69687,999,195,-.80597128E-2,-.2758475E-1,.20531554E-2
STARLINK-37908,2026-145M,2026-06-29T18:00:00.999648,15.93372907,.00012543,97.2869,26.8011,83.9914,282.0617,0,U,69688,999,195,-.78829605E-2,-.2752456E-1,.20536106E-2
STARLINK-37979,2026-145N,2026-06-29T18:00:00.999648,15.93481224,.0001176,97.2868,26.8021,77.2963,291.5611,0,U,69689,999,195,-.78589267E-2,-.2759641E-1,.20671089E-2
STARLINK-37940,2026-145P,2026-06-29T18:00:00.999648,15.94005574,.00012216,97.2867,26.8040,66.4490,306.3191,0,U,69690,999,195,-.76460718E-2,-.2759875E-1,.2080711E-2
STARLINK-37961,2026-145Q,2026-06-29T18:00:00.999648,15.94506204,.00011274,97.2868,26.8056,79.2100,297.3057,0,U,69691,999,195,-.73770704E-2,-.2734077E-1,.20543033E-2
STARLINK-37787,2026-145R,2026-06-29T18:00:00.999648,15.94904214,.00011926,97.2867,26.8076,79.2684,302.3809,0,U,69692,999,195,-.72268033E-2,-.2735631E-1,.20668003E-2
STARLINK-37962,2026-145S,2026-06-29T18:00:00.999648,15.94933196,.000122,97.2867,26.8073,81.5319,299.2559,0,U,69693,999,195,-.72043291E-2,-.2731337E-1,.20610051E-2
STARLINK-37953,2026-145T,2026-06-29T18:00:00.999648,15.94887336,.00012498,97.2867,26.8079,87.1668,295.4621,0,U,69694,999,195,-.72211689E-2,-.2731054E-1,.20594016E-2
STARLINK-37926,2026-145U,2026-06-29T18:00:00.999648,15.95030604,.00012656,97.2867,26.8091,76.3634,308.0451,0,U,69695,999,195,-.71672832E-2,-.273145E-1,.20636738E-2
STARLINK-37959,2026-145V,2026-06-29T18:00:00.999648,15.95043970,.00012875,97.2867,26.8089,74.6394,310.6122,0,U,69696,999,195,-.71848395E-2,-.2740118E-1,.20772551E-2
STARLINK-37976,2026-145W,2026-06-29T18:00:00.999648,15.95771709,.00013473,97.2868,26.8115,70.7810,319.9326,0,U,69697,999,195,-.6850605E-2,-.2716475E-1,.20599246E-2
STARLINK-37912,2026-145X,2026-06-29T18:00:00.999648,15.96150826,.00013206,97.2867,26.8128,64.9461,328.8813,0,U,69698,999,195,-.6760467E-2,-.2736146E-1,.21002694E-2
STARLINK-37974,2026-145Y,2026-06-29T18:00:00.999648,15.96277040,.00012435,97.2866,26.8134,75.5543,320.0357,0,U,69699,999,195,-.66898182E-2,-.272604E-1,.20879431E-2
STARLINK-37955,2026-145Z,2026-06-29T18:00:00.999648,15.97134410,.00012846,97.2867,26.8160,74.5140,326.7061,0,U,69700,999,195,-.63232193E-2,-.2699649E-1,.20698651E-2
STRIX-8,2026-146A,2026-06-30T03:32:57.473952,15.04311250,.0009257,41.9893,96.4422,290.4743,69.5090,0,U,69701,999,51,.32632295E-3,.4439E-4,0
